STARLINK-34923          
1 65247U 25179N   26013.66015723  .00021316  00000+0  14754-2 0  9995
2 65247  97.6038  58.6499 0000399 127.4863 232.6400 15.05692533 23586
STARLINK-34962          
1 65248U 25179P   26013.83185218  .00001811  00000+0  12967-3 0  9995
2 65248  97.6042  58.8862 0001673  90.5546 269.5873 15.05651512 23576
STARLINK-34925          
1 65249U 25179Q   26013.67955376  .00001142  00000+0  83361-4 0  9992
2 65249  97.6036  58.7819 0000460 133.6081 226.5184 15.05649321 23547
STARLINK-34973          
1 65250U 25179R   26013.67125009  .00006042  00000+0  42272-3 0  9995
2 65250  97.6038  58.7927 0000802 101.4507 258.6810 15.05640387 23531
STARLINK-34989          
1 65251U 25179S   26013.93985024  .00002950  00000+0  20854-3 0  9992
2 65251  97.6046  59.0506 0000946  93.5134 266.6201 15.05653294 23752
STARLINK-34961          
1 65252U 25179T   26013.69339896  .00000985  00000+0  72471-4 0  9995
2 65252  97.6039  58.7625 0000880  93.8852 266.2475 15.05646897 23558
STARLINK-34933          
1 65253U 25179U   26013.65185564 -.00000505  00000+0 -30815-4 0  9999
2 65253  97.6068  58.6620 0001676  92.0326 268.1093 15.05634554 23538
STARLINK-34979          
1 65254U 25179V   26013.65739334  .00001830  00000+0  13100-3 0  9997
2 65254  97.6065  58.6548 0000824  96.3391 263.7930 15.05648789 23534
STARLINK-34987          
1 65255U 25179W   26013.71277897  .00001575  00000+0  11335-3 0  9990
2 65255  97.6055  58.7348 0001451  93.2003 266.9390 15.05649256 23531
STARLINK-34971          
1 65256U 25179X   26013.68786119  .00003087  00000+0  21808-3 0  9995
2 65256  97.6039  58.7712 0001078  80.4075 279.7273 15.05649083 23272
STARLINK-34966          
1 65257U 25179Y   26013.68232658  .00003595  00000+0  25322-3 0  9999
2 65257  97.6039  58.7786 0000974  86.2933 273.8405 15.05653032 23658
STARLINK-34980          
1 65258U 25179Z   26013.70170525  .00001695  00000+0  12164-3 0  9996
2 65258  97.6043  58.7510 0002053  83.8489 276.2971 15.05649842 23545
2025-180A               
1 65259U 25180A   26009.14013289  .00014288  00000+0  71526-3 0  9994
2 65259  97.5005 138.6157 0013914 149.2286 210.9766 15.17420622 21628
2025-180B               
1 65260U 25180B   26013.14715266  .00003373  00000+0  19037-3 0  9997
2 65260  97.5058 142.2262 0015537 134.5772 225.6731 15.13726399 22190
2025-180C               
1 65261U 25180C   26013.94033648  .00003692  00000+0  20817-3 0  9995
2 65261  97.5032 142.9671 0015412 132.2904 227.9636 15.13698950 22312
2025-180D               
1 65262U 25180D   26013.14693885  .00004125  00000+0  23216-3 0  9991
2 65262  97.5054 142.2156 0015541 133.4484 226.8043 15.13699139 22193
2025-180E               
1 65263U 25180E   26013.98467659  .00040830  00000+0  20982-2 0  9991
2 65263  97.4771 143.2398 0001753  86.3832 273.7601 15.16349554 22356
COSMOS 2591             
1 65267U 25182A   26013.96029972  .00062882  33187-5  16491-3 0  9997
2 65267  96.5903 308.3239 0011811  59.1677 301.0761 15.94855631 23094
COSMOS 2592             
1 65268U 25182B   26013.97593125  .00065316  34366-5  17096-3 0  9992
2 65268  96.5914 308.3014 0011699  58.6727 301.5694 15.94888055 23098
COSMOS 2593             
1 65269U 25182C   26013.99172194  .00065146  34318-5  17001-3 0  9998
2 65269  96.5947 308.2846 0011539  56.3841 303.8536 15.94947216 23097
COSMOS 2594             
1 65270U 25182D   26013.94452392  .00062441  33032-5  16231-3 0  9997
2 65270  96.5923 308.2059 0011711  56.6994 303.5404 15.95025223 23102
STARLINK-34922          
1 65273U 25184A   26013.73411484  .00001806  00000+0  12935-3 0  9994
2 65273  97.6045  68.5173 0001089  98.6688 261.4662 15.05648957 23034
STARLINK-34904          
1 65274U 25184B   26013.69534222  .00004327  00000+0  30390-3 0  9992
2 65274  97.6053  68.4161 0001508  96.0889 264.0510 15.05652838 23024
STARLINK-34954          
1 65275U 25184C   26013.71475073  .00001033  00000+0  75864-4 0  9991
2 65275  97.6032  68.3896 0002885  99.4100 260.7453 15.05613992 23025
STARLINK-34968          
1 65276U 25184D   26013.68149971  .00002751  00000+0  19483-3 0  9995
2 65276  97.6061  68.4352 0000879  96.8218 263.3109 15.05650852 23021
STARLINK-34935          
1 65277U 25184E   26013.72580388 -.00001390  00000+0 -92121-4 0  9993
2 65277  97.6037  68.5290 0001572  90.9513 269.1893 15.05646647 23033
STARLINK-35000          
1 65278U 25184F   26013.70364981  .00004466  00000+0  31361-3 0  9994
2 65278  97.6038  68.4045 0000981  95.9346 264.1993 15.05638605 23024
STARLINK-35023          
1 65279U 25184G   26013.68979433  .00014499  00000+0  10068-2 0  9993
2 65279  97.6056  68.4231 0000674  71.3928 288.7372 15.05658166 23022
STARLINK-35001          
1 65280U 25184H   26013.93901331  .00010870  00000+0  75581-3 0  9996
2 65280  97.6050  68.7091 0001240  96.5123 263.6245 15.05679434 23067
STARLINK-35010          
1 65281U 25184J   26013.93073304  .00003556  00000+0  25061-3 0  9998
2 65281  97.6042  68.7180 0002078  98.7758 261.3704 15.05638432 23064
STARLINK-35021          
1 65282U 25184K   26013.72027667  .00002987  00000+0  21112-3 0  9997
2 65282  97.6039  68.5373 0001043  85.8560 274.2786 15.05653666 22981
STARLINK-35015          
1 65283U 25184L   26013.70918500  .00001870  00000+0  13374-3 0  9992
2 65283  97.6040  68.3971 0000620 105.5526 254.5770 15.05649912 23027
STARLINK-35006          
1 65284U 25184M   26013.74518655  .00001931  00000+0  13800-3 0  9996
2 65284  97.6060  68.5043 0000176 213.7561 146.3654 15.05650923 23033
STARLINK-34995          
1 65285U 25184N   26013.69257272  .00004343  00000+0  30497-3 0  9997
2 65285  97.6053  68.4193 0000855  76.6139 283.5183 15.05653460 23021
STARLINK-35048          
1 65286U 25184P   26013.68426675  .00002187  00000+0  15573-3 0  9994
2 65286  97.6065  68.4317 0001167  86.4508 273.6853 15.05651011 22976
STARLINK-35007          
1 65287U 25184Q   26013.70087746  .00003686  00000+0  25956-3 0  9991
2 65287  97.6045  68.4083 0000448 114.4537 245.6737 15.05650676 22965
STARLINK-35018          
1 65288U 25184R   26013.73688413  .00001272  00000+0  92322-4 0  9994
2 65288  97.6046  68.5165 0001232  98.3308 261.8058 15.05648077 23034
STARLINK-34845          
1 65289U 25184S   26013.72857852  .00001479  00000+0  10672-3 0  9995
2 65289  97.6039  68.5255 0000872 127.7343 232.3963 15.05647350 23033
STARLINK-34984          
1 65290U 25184T   26013.94179595  .00001824  00000+0  13062-3 0  9992
2 65290  97.6058  68.7050 0001048  99.4684 260.6661 15.05650382 23061
STARLINK-35002          
1 65291U 25184U   26013.71195891  .00003350  00000+0  23623-3 0  9995
2 65291  97.6037  68.3943 0000658 104.7594 255.3706 15.05657998 23029
STARLINK-35017          
1 65292U 25184V   26013.72304490  .00000657  00000+0  49786-4 0  9990
2 65292  97.6035  68.5329 0001528  91.4904 268.6498 15.05640710 22985
STARLINK-34951          
1 65293U 25184W   26013.68703444  .00002106  00000+0  15013-3 0  9994
2 65293  97.6065  68.4275 0000748 100.1879 259.9432 15.05649920 23029
STARLINK-34613          
1 65294U 25184X   26013.69810704 -.00006481  00000+0 -44540-3 0  9993
2 65294  97.6046  68.4125 0000639 142.3992 217.7279 15.05646183 23025
STARLINK-34834          
1 65295U 25184Y   26013.71749187  .00001833  00000+0  13125-3 0  9992
2 65295  97.6034  68.3890 0001313  91.8673 268.2704 15.05646893 23027
STARLINK-34872          
1 65296U 25184Z   26013.90579067  .00001114  00000+0  81412-4 0  9999
2 65296  97.6037  68.5972 0000792  89.3152 270.8166 15.05658693 23053
DRESDEN                 
1 65297U 25185A   26013.76325074  .00002902  00000+0  43020-3 0  9990
2 65297  97.9669  98.9141 0016014 217.0286 142.9819 14.75777612 21023
FOURIER                 
1 65298U 25185B   26013.76202156  .00011340  00000+0  16568-2 0  9998
2 65298  97.9676  98.9351 0016489 215.6645 144.3464 14.75787826 21035
STARK                   
1 65299U 25185C   26013.75307622  .00001281  00000+0  19217-3 0  9990
2 65299  97.9634  98.9031 0014946 216.6718 143.3470 14.76236162 21021
BASIL                   
1 65301U 25185E   26013.76079615  .00002733  00000+0  40549-3 0  9998
2 65301  97.9688  98.9373 0016245 213.0768 146.9426 14.75786509 21038
DOJO                    
1 65302U 25185F   26013.75952910  .00002379  00000+0  35396-3 0  9996
2 65302  97.9696  98.9388 0016402 212.4587 147.5615 14.75779429 21031
DRAGON CRS-33           
1 65304U 25186A   26013.40249050  .00007693  00000+0  14621-3 0  9997
2 65304  51.6331 345.7221 0007764  13.3330 346.7863 15.49271194   112
HULIANWANG DIGUI-73     
1 65305U 25187A   26013.94468665 -.00000093  00000+0  66971-4 0  9997
2 65305  50.0063  39.0644 0000461 318.9880  41.0957 13.29337885 19183
HULIANWANG DIGUI-74     
1 65306U 25187B   26013.92797020 -.00000092  00000+0  68737-4 0  9997
2 65306  50.0106  39.0277 0000448 319.7221  40.3618 13.29338447 19188
HULIANWANG DIGUI-75     
1 65307U 25187C   26013.98647030 -.00000100  00000+0  51006-4 0  9990
2 65307  50.0098  38.6625 0000449 316.9608  43.1229 13.29337567 19192
HULIANWANG DIGUI-76     
1 65308U 25187D   26013.96986809 -.00000096  00000+0  60636-4 0  9992
2 65308  50.0022  39.1435 0000481 312.8916  47.1916 13.29334619 19189
HULIANWANG DIGUI-77     
1 65309U 25187E   26013.96143418 -.00000099  00000+0  53573-4 0  9999
2 65309  50.0056  39.1407 0000497 316.6882  43.3951 13.29336659 19180
HULIANWANG DIGUI-78     
1 65310U 25187F   26013.99484565 -.00000099  00000+0  54098-4 0  9998
2 65310  50.0122  38.7349 0000438 318.8003  41.2837 13.29337252 19191
HULIANWANG DIGUI-79     
1 65311U 25187G   26013.97805878 -.00000096  00000+0  59496-4 0  9995
2 65311  50.0052  39.2207 0000469 315.8790  44.2045 13.29338672 19187
HULIANWANG DIGUI-80     
1 65312U 25187H   26013.95305511 -.00000090  00000+0  72375-4 0  9998
2 65312  50.0042  39.0811 0000497 316.2075  43.8758 13.29336741 19189
